$$SOE
2459580.500000000, A.D. 2022-Jan-01 00:00:00.0000, -5.411816274751750E+08, -1.757781698900921E+07, -1.466631712044610E+07,
2459587.500000000, A.D. 2022-Jan-08 00:00:00.0000, -5.399373459984504E+08, -2.623472515975000E+07, -1.444287781622413E+07,
2459594.500000000, A.D. 2022-Jan-15 00:00:00.0000, -5.385273660933468E+08, -3.488356928283630E+07, -1.421500345419988E+07,
2459601.500000000, A.D. 2022-Jan-22 00:00:00.0000, -5.369512661288921E+08, -4.352164033270168E+07, -1.398274192356142E+07,
2459608.500000000, A.D. 2022-Jan-29 00:00:00.0000, -5.352086503777200E+08, -5.214620044396144E+07, -1.374614231855929E+07,
2459615.500000000, A.D. 2022-Feb-05 00:00:00.0000, -5.332991520152550E+08, -6.075448302935524E+07, -1.350525482503655E+07,
2459622.500000000, A.D. 2022-Feb-12 00:00:00.0000, -5.312224339898126E+08, -6.934369396982627E+07, -1.326013089329794E+07,
2459629.500000000, A.D. 2022-Feb-19 00:00:00.0000, -5.289781890888686E+08, -7.791101150790073E+07, -1.301082338217379E+07,
2459636.500000000, A.D. 2022-Feb-26 00:00:00.0000, -5.265661405131449E+08, -8.645358556833705E+07, -1.275738661318495E+07,
2459643.500000000, A.D. 2022-Mar-05 00:00:00.0000, -5.239860428000863E+08, -9.496853712413573E+07, -1.249987640007319E+07,
2459650.500000000, A.D. 2022-Mar-12 00:00:00.0000, -5.212376828757392E+08, -1.034529576747928E+08, -1.223835007966356E+07,
2459657.500000000, A.D. 2022-Mar-19 00:00:00.0000, -5.183208811647376E+08, -1.119039088102142E+08, -1.197286654854485E+07,
2459664.500000000, A.D. 2022-Mar-26 00:00:00.0000, -5.152354927371469E+08, -1.203184218680395E+08, -1.170348630841361E+07,
2459671.500000000, A.D. 2022-Apr-02 00:00:00.0000, -5.119814084260729E+08, -1.286934977420417E+08, -1.143027153120540E+07,
2459678.500000000, A.D. 2022-Apr-09 00:00:00.0000, -5.085585556459207E+08, -1.370261068383451E+08, -1.115328616887056E+07,
2459685.500000000, A.D. 2022-Apr-16 00:00:00.0000, -5.049668985558183E+08, -1.453131885267653E+08, -1.087259608730736E+07,
2459692.500000000, A.D. 2022-Apr-23 00:00:00.0000, -5.012064388381866E+08, -1.535516490046096E+08, -1.058826901957287E+07,
2459699.500000000, A.D. 2022-Apr-30 00:00:00.0000, -4.972772189639339E+08, -1.617383598205741E+08, -1.030037435044401E+07,
2459706.500000000, A.D. 2022-May-07 00:00:00.0000, -4.931793248839270E+08, -1.698701590349131E+08, -1.000898317466827E+07,
2459713.500000000, A.D. 2022-May-14 00:00:00.0000, -4.889128867593419E+08, -1.779438519795438E+08, -9.714168508019559E+06,
2459720.500000000, A.D. 2022-May-21 00:00:00.0000, -4.844780797627468E+08, -1.859562108613320E+08, -9.416005402718522E+06,
2459727.500000000, A.D. 2022-May-28 00:00:00.0000, -4.798751254295903E+08, -1.939039741701757E+08, -9.114571001610652E+06,
2459734.500000000, A.D. 2022-Jun-04 00:00:00.0000, -4.751042932845891E+08, -2.017838462079210E+08, -8.809944582107380E+06,
2459741.500000000, A.D. 2022-Jun-11 00:00:00.0000, -4.701659026001759E+08, -2.095924967389633E+08, -8.502207602955297E+06,
2459748.500000000, A.D. 2022-Jun-18 00:00:00.0000, -4.650603242498937E+08, -2.173265607521622E+08, -8.191443756200731E+06,
2459755.500000000, A.D. 2022-Jun-25 00:00:00.0000, -4.597879826285788E+08, -2.249826383702917E+08, -7.877739029614553E+06,
2459762.500000000, A.D. 2022-Jul-02 00:00:00.0000, -4.543493575064121E+08, -2.325572949760662E+08, -7.561181797072187E+06,
2459769.500000000, A.D. 2022-Jul-09 00:00:00.0000, -4.487449854275678E+08, -2.400470613813122E+08, -7.241862958019748E+06,
2459776.500000000, A.D. 2022-Jul-16 00:00:00.0000, -4.429754607093811E+08, -2.474484329602217E+08, -6.919876032229781E+06,
2459783.500000000, A.D. 2022-Jul-23 00:00:00.0000, -4.370414382407628E+08, -2.547578676731938E+08, -6.595317001595125E+06,
2459790.500000000, A.D. 2022-Jul-30 00:00:00.0000, -4.309436379965945E+08, -2.619717863404233E+08, -6.268284180560559E+06,
2459797.500000000, A.D. 2022-Aug-06 00:00:00.0000, -4.246828476710832E+08, -2.690865745225456E+08, -5.938878392070666E+06,
2459804.500000000, A.D. 2022-Aug-13 00:00:00.0000, -4.182599242543215E+08, -2.760985832585176E+08, -5.607203148002356E+06,
2459811.500000000, A.D. 2022-Aug-20 00:00:00.0000, -4.116757961211813E+08, -2.830041291688623E+08, -5.273364730828539E+06,
2459818.500000000, A.D. 2022-Aug-27 00:00:00.0000, -4.049314655639041E+08, -2.897994946565545E+08, -4.937472241808832E+06,
2459825.500000000, A.D. 2022-Sep-03 00:00:00.0000, -3.980280115203460E+08, -2.964809283225917E+08, -4.599637647247493E+06,
2459832.500000000, A.D. 2022-Sep-10 00:00:00.0000, -3.909665924078917E+08, -3.030446455790920E+08, -4.259975828909680E+06,
2459839.500000000, A.D. 2022-Sep-17 00:00:00.0000, -3.837484490335233E+08, -3.094868294684771E+08, -3.918604641238645E+06,
2459846.500000000, A.D. 2022-Sep-24 00:00:00.0000, -3.763749075190928E+08, -3.158036317466529E+08, -3.575644984920233E+06,
2459853.500000000, A.D. 2022-Oct-01 00:00:00.0000, -3.688473820009429E+08, -3.219911742598555E+08, -3.231220920546785E+06,
2459860.500000000, A.D. 2022-Oct-08 00:00:00.0000, -3.611673766954007E+08, -3.280455501006843E+08, -2.885459817035243E+06,
2459867.500000000, A.D. 2022-Oct-15 00:00:00.0000, -3.533364882602319E+08, -3.339628233516982E+08, -2.538492351316676E+06,
2459874.500000000, A.D. 2022-Oct-22 00:00:00.0000, -3.453564106311274E+08, -3.397390291082641E+08, -2.190452296833307E+06,
2459881.500000000, A.D. 2022-Oct-29 00:00:00.0000, -3.372289398329234E+08, -3.453701763827274E+08, -1.841476541952506E+06,
2459888.500000000, A.D. 2022-Nov-05 00:00:00.0000, -3.289559766637087E+08, -3.508522511570306E+08, -1.491705306746036E+06,
2459895.500000000, A.D. 2022-Nov-12 00:00:00.0000, -3.205395292122989E+08, -3.561812183238505E+08, -1.141282274103060E+06,
2459902.500000000, A.D. 2022-Nov-19 00:00:00.0000, -3.119817159220988E+08, -3.613530234781803E+08, -7.903546469679624E+05,
2459909.500000000, A.D. 2022-Nov-26 00:00:00.0000, -3.032847689320418E+08, -3.663635949663177E+08, -4.390731881431639E+05,
2459916.500000000, A.D. 2022-Dec-03 00:00:00.0000, -2.944510375219961E+08, -3.712088462150904E+08, -8.759225876814127E+04,
2459923.500000000, A.D. 2022-Dec-10 00:00:00.0000, -2.854829916113032E+08, -3.758846783344173E+08, 2.639301420747638E+05,
2459930.500000000, A.D. 2022-Dec-17 00:00:00.0000, -2.763832252798275E+08, -3.803869830293411E+08, 6.153323327108920E+05,
2459937.500000000, A.D. 2022-Dec-24 00:00:00.0000, -2.671544601951282E+08, -3.847116458976581E+08, 9.664488843109012E+05,
2459944.500000000, A.D. 2022-Dec-31 00:00:00.0000, -2.577995485795906E+08, -3.888545500154296E+08, 1.317110513015866E+06,
2459951.500000000, A.D. 2023-Jan-07 00:00:00.0000, -2.483214755847481E+08, -3.928115788574569E+08, 1.667143996798873E+06,
2459958.500000000, A.D. 2023-Jan-14 00:00:00.0000, -2.387233630280430E+08, -3.965786180649681E+08, 2.016372338729978E+06,
2459965.500000000, A.D. 2023-Jan-21 00:00:00.0000, -2.290084751233037E+08, -4.001515592425998E+08, 2.364614977072090E+06,
2459972.500000000, A.D. 2023-Jan-28 00:00:00.0000, -2.191802225230449E+08, -4.035263059908950E+08, 2.711687690375745E+06,
2459979.500000000, A.D. 2023-Feb-04 00:00:00.0000, -2.092421648670132E+08, -4.066987791569439E+08, 3.057402464886874E+06,
2459986.500000000, A.D. 2023-Feb-11 00:00:00.0000, -1.991980136165913E+08, -4.096649215055982E+08, 3.401567473962784E+06,
2459993.500000000, A.D. 2023-Feb-18 00:00:00.0000, -1.890516352208697E+08, -4.124207026422344E+08, 3.743987108851552E+06,
2460000.500000000, A.D. 2023-Feb-25 00:00:00.0000, -1.788070543323649E+08, -4.149621243561015E+08, 4.084462024302185E+06,
2460007.500000000, A.D. 2023-Mar-04 00:00:00.0000, -1.684684569494130E+08, -4.172852263724641E+08, 4.422789191949517E+06,
2460014.500000000, A.D. 2023-Mar-11 00:00:00.0000, -1.580401934347165E+08, -4.193860925197619E+08, 4.758761959749758E+06,
2460021.500000000, A.D. 2023-Mar-18 00:00:00.0000, -1.475267813400969E+08, -4.212608573671306E+08, 5.092170110079110E+06,
2460028.500000000, A.D. 2023-Mar-25 00:00:00.0000, -1.369329078100472E+08, -4.229057133839861E+08, 5.422799895035654E+06,
2460035.500000000, A.D. 2023-Apr-01 00:00:00.0000, -1.262634311140572E+08, -4.243169182312155E+08, 5.750434043217272E+06,
2460042.500000000, A.D. 2023-Apr-08 00:00:00.0000, -1.155233818961662E+08, -4.254908009600165E+08, 6.074851895562887E+06,
2460049.500000000, A.D. 2023-Apr-15 00:00:00.0000, -1.047179664499531E+08, -4.264237682231897E+08, 6.395829795127839E+06,
2460056.500000000, A.D. 2023-Apr-22 00:00:00.0000, -9.385257017901798E+07, -4.271123135482638E+08, 6.713141316179246E+06,
2460063.500000000, A.D. 2023-Apr-29 00:00:00.0000, -8.293275847653572E+07, -4.275530274167308E+08, 7.026557266631931E+06,
2460070.500000000, A.D. 2023-May-06 00:00:00.0000, -7.196427675246680E+07, -4.277426063630021E+08, 7.335845771666259E+06,
2460077.500000000, A.D. 2023-May-13 00:00:00.0000, -6.095305055259144E+07, -4.276778619779919E+08, 7.640772455827802E+06,
2460084.500000000, A.D. 2023-May-20 00:00:00.0000, -4.990518550163659E+07, -4.273557302966745E+08, 7.941100662561774E+06,
2460091.500000000, A.D. 2023-May-27 00:00:00.0000, -3.882696684261278E+07, -4.267732815841613E+08, 8.236591691418678E+06,
2460098.500000000, A.D. 2023-Jun-03 00:00:00.0000, -2.772485847958266E+07, -4.259277304763497E+08, 8.527005049995124E+06,
2460105.500000000, A.D. 2023-Jun-10 00:00:00.0000, -1.660550146449866E+07, -4.248164464682066E+08, 8.812098717459142E+06,
2460112.500000000, A.D. 2023-Jun-17 00:00:00.0000, -5.475711803867502E+06, -4.234369647861757E+08, 9.091629406795919E+06,
2460119.500000000, A.D. 2023-Jun-24 00:00:00.0000, 5.657522769091654E+06, -4.217869975618308E+08, 9.365352801220268E+06,
2460126.500000000, A.D. 2023-Jul-01 00:00:00.0000, 1.678704734323959E+07, -4.198644444471161E+08, 9.633023809443444E+06,
2460133.500000000, A.D. 2023-Jul-08 00:00:00.0000, 2.790554405724914E+07, -4.176674018123984E+08, 9.894397060614914E+06,
2460140.500000000, A.D. 2023-Jul-15 00:00:00.0000, 3.900553476052172E+07, -4.151941733144728E+08, 1.014922752457371E+07,
$$EOE